[{"OBJECT_NAME":"GAOFEN-9 05","OBJECT_ID":"2020-058A","EPOCH":"2026-03-10T00:01:50.876256","MEAN_MOTION":15.30293976,"ECCENTRICITY":0.0010522,"INCLINATION":97.2228,"RA_OF_ASC_NODE":111.963,"ARG_OF_PERICENTER":91.0204,"MEAN_ANOMALY":269.2242,"EPHEMERIS_TYPE":0,"CLASSIFICATION_TYPE":"U","NORAD_CAT_ID":46232,"ELEMENT_SET_NO":999,"REV_AT_EPOCH":30843,"BSTAR":0.00025120304,"MEAN_MOTION_DOT":7.299e-5,"MEAN_MOTION_DDOT":0},{"OBJECT_NAME":"STARLINK-32835","OBJECT_ID":"2025-034Y","EPOCH":"2026-03-09T22:53:18.140352","MEAN_MOTION":15.30198308,"ECCENTRICITY":0.00011662,"INCLINATION":53.1595,"RA_OF_ASC_NODE":269.9389,"ARG_OF_PERICENTER":88.4751,"MEAN_ANOMALY":271.6383,"EPHEMERIS_TYPE":0,"CLASSIFICATION_TYPE":"U","NORAD_CAT_ID":63051,"ELEMENT_SET_NO":999,"REV_AT_EPOCH":5894,"BSTAR":0.001375326,"MEAN_MOTION_DOT":0.00040595,"MEAN_MOTION_DDOT":0}]
